STARLINK-33922          
1 63698U 25087B   26042.95922621  .00031159  00000+0  10585-2 0  9993
2 63698  53.1614 338.8277 0001489 111.3435 248.7724 15.30239131 45250
STARLINK-33919          
1 63699U 25087C   26041.25166729  .00028864  00000+0  98316-3 0  9993
2 63699  53.1629 347.3667 0000929 106.9546 253.1556 15.30191212 44996
STARLINK-33908          
1 63700U 25087D   26042.25765820  .00035849  00000+0  12158-2 0  9994
2 63700  53.1586 342.2668 0001064 120.2466 239.8641 15.30224302 45159
STARLINK-33950          
1 63701U 25087E   26042.21133762  .00049326  00000+0  16648-2 0  9998
2 63701  53.1628 342.6905 0000455 132.3125 227.7914 15.30233428 45141
STARLINK-33939          
1 63702U 25087F   26042.20817468  .00031350  00000+0  10652-2 0  9997
2 63702  53.1610 342.6733 0001007 100.5762 259.5352 15.30227990 45146
STARLINK-33868          
1 63703U 25087G   26041.28215708  .00031497  00000+0  10705-2 0  9995
2 63703  53.1589 346.8501 0002496  10.9133 349.1921 15.30214235 45001
STARLINK-33937          
1 63704U 25087H   26042.95606220  .00039201  00000+0  13272-2 0  9997
2 63704  53.1610 338.7963 0002458 134.5854 225.5348 15.30235728 45268
STARLINK-33848          
1 63705U 25087J   26042.24921431  .00031594  00000+0  10733-2 0  9990
2 63705  53.1602 342.2207 0001570  41.8698 318.2422 15.30229620 45145
STARLINK-33995          
1 63706U 25087K   26042.22611139  .00023556  00000+0  80464-3 0  9998
2 63706  53.1619 342.7793 0001451 123.5746 236.5393 15.30212114 45148
STARLINK-33982          
1 63707U 25087L   26041.21050962  .00026564  00000+0  90519-3 0  9992
2 63707  53.1606 347.1044 0001051 110.7048 249.4066 15.30221967 44990
STARLINK-33915          
1 63708U 25087M   26042.26715366  .00029906  00000+0  10169-2 0  9990
2 63708  53.1600 342.3298 0000565  83.9110 276.1955 15.30230244 45154
STARLINK-33862          
1 63709U 25087N   26042.26082380  .00032133  00000+0  10915-2 0  9999
2 63709  53.1593 342.2912 0001472  65.3773 294.7381 15.30226675 45157
STARLINK-33920          
1 63710U 25087P   26042.21872185  .00042327  00000+0  14318-2 0  9993
2 63710  53.1645 342.7264 0000975 163.1456 196.9577 15.30229092 45149
STARLINK-33580          
1 63711U 25087Q   26042.22822303  .00044193  00000+0  14940-2 0  9996
2 63711  53.1630 342.7942 0000880  84.7879 275.3223 15.30229905 45142
STARLINK-33783          
1 63712U 25087R   26042.21661649  .00031465  00000+0  10693-2 0  9999
2 63712  53.1642 342.7104 0002037  91.1554 268.9680 15.30221090 45146
STARLINK-33773          
1 63713U 25087S   26041.26738303  .00028774  00000+0  97923-3 0  9997
2 63713  53.1592 346.7471 0001183 139.3145 220.7944 15.30221348 45004
