[{"OBJECT_NAME":"STARLINK-33922","OBJECT_ID":"2025-087B","EPOCH":"2026-02-11T23:01:17.144544","MEAN_MOTION":15.30239131,"ECCENTRICITY":0.00014894,"INCLINATION":53.1614,"RA_OF_ASC_NODE":338.8277,"ARG_OF_PERICENTER":111.3435,"MEAN_ANOMALY":248.7724,"EPHEMERIS_TYPE":0,"CLASSIFICATION_TYPE":"U","NORAD_CAT_ID":63698,"ELEMENT_SET_NO":999,"REV_AT_EPOCH":4525,"BSTAR":0.001058461,"MEAN_MOTION_DOT":0.00031159,"MEAN_MOTION_DDOT":0},{"OBJECT_NAME":"STARLINK-33919","OBJECT_ID":"2025-087C","EPOCH":"2026-02-10T06:02:24.053856","MEAN_MOTION":15.30191212,"ECCENTRICITY":9.29e-5,"INCLINATION":53.1629,"RA_OF_ASC_NODE":347.3667,"ARG_OF_PERICENTER":106.9546,"MEAN_ANOMALY":253.1556,"EPHEMERIS_TYPE":0,"CLASSIFICATION_TYPE":"U","NORAD_CAT_ID":63699,"ELEMENT_SET_NO":999,"REV_AT_EPOCH":4499,"BSTAR":0.00098316,"MEAN_MOTION_DOT":0.00028864,"MEAN_MOTION_DDOT":0},{"OBJECT_NAME":"STARLINK-33908","OBJECT_ID":"2025-087D","EPOCH":"2026-02-11T06:11:01.668480","MEAN_MOTION":15.30224302,"ECCENTRICITY":0.00010646,"INCLINATION":53.1586,"RA_OF_ASC_NODE":342.2668,"ARG_OF_PERICENTER":120.2466,"MEAN_ANOMALY":239.8641,"EPHEMERIS_TYPE":0,"CLASSIFICATION_TYPE":"U","NORAD_CAT_ID":63700,"ELEMENT_SET_NO":999,"REV_AT_EPOCH":4515,"BSTAR":0.0012157731,"MEAN_MOTION_DOT":0.00035849,"MEAN_MOTION_DDOT":0},{"OBJECT_NAME":"STARLINK-33950","OBJECT_ID":"2025-087E","EPOCH":"2026-02-11T05:04:19.570368","MEAN_MOTION":15.30233428,"ECCENTRICITY":4.559e-5,"INCLINATION":53.1628,"RA_OF_ASC_NODE":342.6905,"ARG_OF_PERICENTER":132.3125,"MEAN_ANOMALY":227.7914,"EPHEMERIS_TYPE":0,"CLASSIFICATION_TYPE":"U","NORAD_CAT_ID":63701,"ELEMENT_SET_NO":999,"REV_AT_EPOCH":4514,"BSTAR":0.0016648029,"MEAN_MOTION_DOT":0.00049326,"MEAN_MOTION_DDOT":0},{"OBJECT_NAME":"STARLINK-33939","OBJECT_ID":"2025-087F","EPOCH":"2026-02-11T04:59:46.292352","MEAN_MOTION":15.3022799,"ECCENTRICITY":0.00010073,"INCLINATION":53.161,"RA_OF_ASC_NODE":342.6733,"ARG_OF_PERICENTER":100.5762,"MEAN_ANOMALY":259.5352,"EPHEMERIS_TYPE":0,"CLASSIFICATION_TYPE":"U","NORAD_CAT_ID":63702,"ELEMENT_SET_NO":999,"REV_AT_EPOCH":4514,"BSTAR":0.001065209,"MEAN_MOTION_DOT":0.0003135,"MEAN_MOTION_DDOT":0},{"OBJECT_NAME":"STARLINK-33868","OBJECT_ID":"2025-087G","EPOCH":"2026-02-10T06:46:18.371712","MEAN_MOTION":15.30214235,"ECCENTRICITY":0.0002496,"INCLINATION":53.1589,"RA_OF_ASC_NODE":346.8501,"ARG_OF_PERICENTER":10.9133,"MEAN_ANOMALY":349.1921,"EPHEMERIS_TYPE":0,"CLASSIFICATION_TYPE":"U","NORAD_CAT_ID":63703,"ELEMENT_SET_NO":999,"REV_AT_EPOCH":4500,"BSTAR":0.0010705,"MEAN_MOTION_DOT":0.00031497,"MEAN_MOTION_DDOT":0},{"OBJECT_NAME":"STARLINK-33937","OBJECT_ID":"2025-087H","EPOCH":"2026-02-11T22:56:43.774080","MEAN_MOTION":15.30235728,"ECCENTRICITY":0.00024582,"INCLINATION":53.161,"RA_OF_ASC_NODE":338.7963,"ARG_OF_PERICENTER":134.5854,"MEAN_ANOMALY":225.5348,"EPHEMERIS_TYPE":0,"CLASSIFICATION_TYPE":"U","NORAD_CAT_ID":63704,"ELEMENT_SET_NO":999,"REV_AT_EPOCH":4526,"BSTAR":0.0013271814,"MEAN_MOTION_DOT":0.00039201,"MEAN_MOTION_DDOT":0},{"OBJECT_NAME":"STARLINK-33848","OBJECT_ID":"2025-087J","EPOCH":"2026-02-11T05:58:52.116384","MEAN_MOTION":15.3022962,"ECCENTRICITY":0.00015702,"INCLINATION":53.1602,"RA_OF_ASC_NODE":342.2207,"ARG_OF_PERICENTER":41.8698,"MEAN_ANOMALY":318.2422,"EPHEMERIS_TYPE":0,"CLASSIFICATION_TYPE":"U","NORAD_CAT_ID":63705,"ELEMENT_SET_NO":999,"REV_AT_EPOCH":4514,"BSTAR":0.0010733209,"MEAN_MOTION_DOT":0.00031594,"MEAN_MOTION_DDOT":0},{"OBJECT_NAME":"STARLINK-33995","OBJECT_ID":"2025-087K","EPOCH":"2026-02-11T05:25:36.024096","MEAN_MOTION":15.30212114,"ECCENTRICITY":0.00014519,"INCLINATION":53.1619,"RA_OF_ASC_NODE":342.7793,"ARG_OF_PERICENTER":123.5746,"MEAN_ANOMALY":236.5393,"EPHEMERIS_TYPE":0,"CLASSIFICATION_TYPE":"U","NORAD_CAT_ID":63706,"ELEMENT_SET_NO":999,"REV_AT_EPOCH":4514,"BSTAR":0.000804636,"MEAN_MOTION_DOT":0.00023556,"MEAN_MOTION_DDOT":0},{"OBJECT_NAME":"STARLINK-33982","OBJECT_ID":"2025-087L","EPOCH":"2026-02-10T05:03:08.031168","MEAN_MOTION":15.30221967,"ECCENTRICITY":0.0001051,"INCLINATION":53.1606,"RA_OF_ASC_NODE":347.1044,"ARG_OF_PERICENTER":110.7048,"MEAN_ANOMALY":249.4066,"EPHEMERIS_TYPE":0,"CLASSIFICATION_TYPE":"U","NORAD_CAT_ID":63707,"ELEMENT_SET_NO":999,"REV_AT_EPOCH":4499,"BSTAR":0.00090519,"MEAN_MOTION_DOT":0.00026564,"MEAN_MOTION_DDOT":0},{"OBJECT_NAME":"STARLINK-33915","OBJECT_ID":"2025-087M","EPOCH":"2026-02-11T06:24:42.076224","MEAN_MOTION":15.30230244,"ECCENTRICITY":5.659e-5,"INCLINATION":53.16,"RA_OF_ASC_NODE":342.3298,"ARG_OF_PERICENTER":83.911,"MEAN_ANOMALY":276.1955,"EPHEMERIS_TYPE":0,"CLASSIFICATION_TYPE":"U","NORAD_CAT_ID":63708,"ELEMENT_SET_NO":999,"REV_AT_EPOCH":4515,"BSTAR":0.0010168503,"MEAN_MOTION_DOT":0.00029906,"MEAN_MOTION_DDOT":0},{"OBJECT_NAME":"STARLINK-33862","OBJECT_ID":"2025-087N","EPOCH":"2026-02-11T06:15:35.176320","MEAN_MOTION":15.30226675,"ECCENTRICITY":0.00014722,"INCLINATION":53.1593,"RA_OF_ASC_NODE":342.2912,"ARG_OF_PERICENTER":65.3773,"MEAN_ANOMALY":294.7381,"EPHEMERIS_TYPE":0,"CLASSIFICATION_TYPE":"U","NORAD_CAT_ID":63709,"ELEMENT_SET_NO":999,"REV_AT_EPOCH":4515,"BSTAR":0.0010914565,"MEAN_MOTION_DOT":0.00032133,"MEAN_MOTION_DDOT":0},{"OBJECT_NAME":"STARLINK-33920","OBJECT_ID":"2025-087P","EPOCH":"2026-02-11T05:14:57.567840","MEAN_MOTION":15.30229092,"ECCENTRICITY":9.751e-5,"INCLINATION":53.1645,"RA_OF_ASC_NODE":342.7264,"ARG_OF_PERICENTER":163.1456,"MEAN_ANOMALY":196.9577,"EPHEMERIS_TYPE":0,"CLASSIFICATION_TYPE":"U","NORAD_CAT_ID":63710,"ELEMENT_SET_NO":999,"REV_AT_EPOCH":4514,"BSTAR":0.0014318077,"MEAN_MOTION_DOT":0.00042327,"MEAN_MOTION_DDOT":0},{"OBJECT_NAME":"STARLINK-33580","OBJECT_ID":"2025-087Q","EPOCH":"2026-02-11T05:28:38.469792","MEAN_MOTION":15.30229905,"ECCENTRICITY":8.803e-5,"INCLINATION":53.163,"RA_OF_ASC_NODE":342.7942,"ARG_OF_PERICENTER":84.7879,"MEAN_ANOMALY":275.3223,"EPHEMERIS_TYPE":0,"CLASSIFICATION_TYPE":"U","NORAD_CAT_ID":63711,"ELEMENT_SET_NO":999,"REV_AT_EPOCH":4514,"BSTAR":0.0014940005,"MEAN_MOTION_DOT":0.00044193,"MEAN_MOTION_DDOT":0},{"OBJECT_NAME":"STARLINK-33783","OBJECT_ID":"2025-087R","EPOCH":"2026-02-11T05:11:55.664736","MEAN_MOTION":15.3022109,"ECCENTRICITY":0.00020375,"INCLINATION":53.1642,"RA_OF_ASC_NODE":342.7104,"ARG_OF_PERICENTER":91.1554,"MEAN_ANOMALY":268.968,"EPHEMERIS_TYPE":0,"CLASSIFICATION_TYPE":"U","NORAD_CAT_ID":63712,"ELEMENT_SET_NO":999,"REV_AT_EPOCH":4514,"BSTAR":0.00106928,"MEAN_MOTION_DOT":0.00031465,"MEAN_MOTION_DDOT":0},{"OBJECT_NAME":"STARLINK-33773","OBJECT_ID":"2025-087S","EPOCH":"2026-02-10T06:25:01.893792","MEAN_MOTION":15.30221348,"ECCENTRICITY":0.00011835,"INCLINATION":53.1592,"RA_OF_ASC_NODE":346.7471,"ARG_OF_PERICENTER":139.3145,"MEAN_ANOMALY":220.7944,"EPHEMERIS_TYPE":0,"CLASSIFICATION_TYPE":"U","NORAD_CAT_ID":63713,"ELEMENT_SET_NO":999,"REV_AT_EPOCH":4500,"BSTAR":0.00097923254,"MEAN_MOTION_DOT":0.00028774,"MEAN_MOTION_DDOT":0}]
